{"type": "FeatureCollection", "features": [ {"type": "Feature", "properties": {"norad_id": 42969, "name": "SENTINEL-5P", "group": "resource", "lat": 40.87229081705104, "lon": 108.17129187378487, "alt_km": 823.2934188856616, "timestamp": "2025-12-07T20:38:13.735004+00:00", "meta": {"OBJECT_NAME": "SENTINEL-5P", "OBJECT_ID": "2017-064A", "EPOCH": "2025-12-07T03:04:13.797408", "MEAN_MOTION": 14.19515254, "ECCENTRICITY": 9.629e-05, "INCLINATION": 98.7777, "RA_OF_ASC_NODE": 279.7621, "ARG_OF_PERICENTER": 86.5939, "MEAN_ANOMALY": 273.5347, "EPHEMERIS_TYPE": 0, "CLASSIFICATION_TYPE": "U", "NORAD_CAT_ID": 42969, "ELEMENT_SET_NO": 999, "REV_AT_EPOCH": 42231, "BSTAR": 0.00010307983, "MEAN_MOTION_DOT": 1.73e-06, "MEAN_MOTION_DDOT": 0}, "tle": {"line1": "1 42969U 17064A   25341.12793747  .00000173  00000+0  10308-3 0  9998", "line2": "2 42969  98.7777 279.7621 0000962  86.5939 273.5347 14.19515254422318"}}, "geometry": {"type": "Point", "coordinates": [108.17129187378487, 40.87229081705104]}}, {"type": "Feature", "properties": {"norad_id": 42987, "name": "SKYSAT-C11", "group": "resource", "lat": 8.625443718285045, "lon": -59.6358178312662, "alt_km": 426.7448533756269, "timestamp": "2025-12-07T20:38:13.735014+00:00", "meta": {"OBJECT_NAME": "SKYSAT-C11", "OBJECT_ID": "2017-068A", "EPOCH": "2025-12-07T02:49:28.511904", "MEAN_MOTION": 15.47101007, "ECCENTRICITY": 9.35e-05, "INCLINATION": 97.4145, "RA_OF_ASC_NODE": 118.4722, "ARG_OF_PERICENTER": 107.9063, "MEAN_ANOMALY": 252.2289, "EPHEMERIS_TYPE": 0, "CLASSIFICATION_TYPE": "U", "NORAD_CAT_ID": 42987, "ELEMENT_SET_NO": 999, "REV_AT_EPOCH": 45344, "BSTAR": 0.00062933088, "MEAN_MOTION_DOT": 0.00031875, "MEAN_MOTION_DDOT": 0}, "tle": {"line1": "1 42987U 17068A   25341.11769111  .00031875  00000+0  62933-3 0  9993", "line2": "2 42987  97.4145 118.4722 0000935 107.9063 252.2289 15.47101007453446"}}, "geometry": {"type": "Point", "coordinates": [-59.6358178312662, 8.625443718285045]}}, {"type": "Feature", "properties": {"norad_id": 42988, "name": "SKYSAT-C10", "group": "resource", "lat": 19.46264247918449, "lon": -64.65977168789757, "alt_km": 467.74392100956084, "timestamp": "2025-12-07T20:38:13.735024+00:00", "meta": {"OBJECT_NAME": "SKYSAT-C10", "OBJECT_ID": "2017-068B", "EPOCH": "2025-12-07T07:23:55.271040", "MEAN_MOTION": 15.31889286, "ECCENTRICITY": 0.00052692, "INCLINATION": 97.4263, "RA_OF_ASC_NODE": 112.1454, "ARG_OF_PERICENTER": 118.9905, "MEAN_ANOMALY": 241.1865, "EPHEMERIS_TYPE": 0, "CLASSIFICATION_TYPE": "U", "NORAD_CAT_ID": 42988, "ELEMENT_SET_NO": 999, "REV_AT_EPOCH": 45296, "BSTAR": 0.00055810451, "MEAN_MOTION_DOT": 0.00017132, "MEAN_MOTION_DDOT": 0}, "tle": {"line1": "1 42988U 17068B   25341.30827860  .00017132  00000+0  55810-3 0  9997", "line2": "2 42988  97.4263 112.1454 0005269 118.9905 241.1865 15.31889286452961"}}, "geometry": {"type": "Point", "coordinates": [-64.65977168789757, 19.46264247918449]}}, {"type": "Feature", "properties": {"norad_id": 42989, "name": "SKYSAT-C9", "group": "resource", "lat": -61.13273252321369, "lon": 125.74922083823392, "alt_km": 472.6264537065199, "timestamp": "2025-12-07T20:38:13.735034+00:00", "meta": {"OBJECT_NAME": "SKYSAT-C9", "OBJECT_ID": "2017-068C", "EPOCH": "2025-12-07T02:08:35.438784", "MEAN_MOTION": 15.35831782, "ECCENTRICITY": 0.00106921, "INCLINATION": 97.4192, "RA_OF_ASC_NODE": 111.3002, "ARG_OF_PERICENTER": 106.0149, "MEAN_ANOMALY": 254.2273, "EPHEMERIS_TYPE": 0, "CLASSIFICATION_TYPE": "U", "NORAD_CAT_ID": 42989, "ELEMENT_SET_NO": 999, "REV_AT_EPOCH": 45321, "BSTAR": 0.00058542572, "MEAN_MOTION_DOT": 0.00020396, "MEAN_MOTION_DDOT": 0}, "tle": {"line1": "1 42989U 17068C   25341.08929906  .00020396  00000+0  58543-3 0  9999", "line2": "2 42989  97.4192 111.3002 0010692 106.0149 254.2273 15.35831782453216"}}, "geometry": {"type": "Point", "coordinates": [125.74922083823392, -61.13273252321369]}}, {"type": "Feature", "properties": {"norad_id": 42990, "name": "SKYSAT-C8", "group": "resource", "lat": -36.18030386862851, "lon": 117.31551184083534, "alt_km": 473.0029902711467, "timestamp": "2025-12-07T20:38:13.735045+00:00", "meta": {"OBJECT_NAME": "SKYSAT-C8", "OBJECT_ID": "2017-068D", "EPOCH": "2025-12-07T05:07:40.548864", "MEAN_MOTION": 15.32737888, "ECCENTRICITY": 0.00019738, "INCLINATION": 97.4285, "RA_OF_ASC_NODE": 111.191, "ARG_OF_PERICENTER": 9.2198, "MEAN_ANOMALY": 350.908, "EPHEMERIS_TYPE": 0, "CLASSIFICATION_TYPE": "U", "NORAD_CAT_ID": 42990, "ELEMENT_SET_NO": 999, "REV_AT_EPOCH": 45286, "BSTAR": 0.00052704013, "MEAN_MOTION_DOT": 0.00016602, "MEAN_MOTION_DDOT": 0}, "tle": {"line1": "1 42990U 17068D   25341.21366376  .00016602  00000+0  52704-3 0  9990", "line2": "2 42990  97.4285 111.1910 0001973   9.2198 350.9080 15.32737888452866"}}, "geometry": {"type": "Point", "coordinates": [117.31551184083534, -36.18030386862851]}}, {"type": "Feature", "properties": {"norad_id": 42991, "name": "SKYSAT-C7", "group": "resource", "lat": -9.543398074694526, "lon": -68.37199664943428, "alt_km": 476.0754869970233, "timestamp": "2025-12-07T20:38:13.735055+00:00", "meta": {"OBJECT_NAME": "SKYSAT-C7", "OBJECT_ID": "2017-068E", "EPOCH": "2025-12-07T07:16:26.050656", "MEAN_MOTION": 15.32149266, "ECCENTRICITY": 0.00078464, "INCLINATION": 97.4292, "RA_OF_ASC_NODE": 112.3265, "ARG_OF_PERICENTER": 74.0573, "MEAN_ANOMALY": 286.1533, "EPHEMERIS_TYPE": 0, "CLASSIFICATION_TYPE": "U", "NORAD_CAT_ID": 42991, "ELEMENT_SET_NO": 999, "REV_AT_EPOCH": 45294, "BSTAR": 0.00054961744, "MEAN_MOTION_DOT": 0.00017016, "MEAN_MOTION_DDOT": 0}, "tle": {"line1": "1 42991U 17068E   25341.30307929  .00017016  00000+0  54962-3 0  9998", "line2": "2 42991  97.4292 112.3265 0007846  74.0573 286.1533 15.32149266452942"}}, "geometry": {"type": "Point", "coordinates": [-68.37199664943428, -9.543398074694526]}}, {"type": "Feature", "properties": {"norad_id": 42992, "name": "SKYSAT-C6", "group": "resource", "lat": -38.79988167621024, "lon": 119.35222949308846, "alt_km": 480.8529925438206, "timestamp": "2025-12-07T20:38:13.735067+00:00", "meta": {"OBJECT_NAME": "SKYSAT-C6", "OBJECT_ID": "2017-068F", "EPOCH": "2025-12-06T22:51:07.405056", "MEAN_MOTION": 15.31307672, "ECCENTRICITY": 0.00051954, "INCLINATION": 97.4325, "RA_OF_ASC_NODE": 112.4175, "ARG_OF_PERICENTER": 98.5499, "MEAN_ANOMALY": 261.6332, "EPHEMERIS_TYPE": 0, "CLASSIFICATION_TYPE": "U", "NORAD_CAT_ID": 42992, "ELEMENT_SET_NO": 999, "REV_AT_EPOCH": 45287, "BSTAR": 0.00050598768, "MEAN_MOTION_DOT": 0.00015242, "MEAN_MOTION_DDOT": 0}, "tle": {"line1": "1 42992U 17068F   25340.95216904  .00015242  00000+0  50599-3 0  9992", "line2": "2 42992  97.4325 112.4175 0005195  98.5499 261.6332 15.31307672452877"}}, "geometry": {"type": "Point", "coordinates": [119.35222949308846, -38.79988167621024]}}, {"type": "Feature", "properties": {"norad_id": 43111, "name": "CARTOSAT-2F", "group": "resource", "lat": -76.84965986246378, "lon": 73.54423062947893, "alt_km": 515.9772840762835, "timestamp": "2025-12-07T20:38:13.735077+00:00", "meta": {"OBJECT_NAME": "CARTOSAT-2F", "OBJECT_ID": "2018-004A", "EPOCH": "2025-12-07T06:45:28.626912", "MEAN_MOTION": 15.19193213, "ECCENTRICITY": 6.694e-05, "INCLINATION": 97.4321, "RA_OF_ASC_NODE": 39.0073, "ARG_OF_PERICENTER": 138.0909, "MEAN_ANOMALY": 222.0377, "EPHEMERIS_TYPE": 0, "CLASSIFICATION_TYPE": "U", "NORAD_CAT_ID": 43111, "ELEMENT_SET_NO": 999, "REV_AT_EPOCH": 43819, "BSTAR": 0.00037304578, "MEAN_MOTION_DOT": 7.785e-05, "MEAN_MOTION_DDOT": 0}, "tle": {"line1": "1 43111U 18004A   25341.28158133  .00007785  00000+0  37305-3 0  9996", "line2": "2 43111  97.4321  39.0073 0000669 138.0909 222.0377 15.19193213438194"}}, "geometry": {"type": "Point", "coordinates": [73.54423062947893, -76.84965986246378]}}, {"type": "Feature", "properties": {"norad_id": 43259, "name": "GAOFEN-1 02", "group": "resource", "lat": 75.0311562052691, "lon": 7.54549022269273, "alt_km": 634.271133552751, "timestamp": "2025-12-07T20:38:13.735087+00:00", "meta": {"OBJECT_NAME": "GAOFEN-1 02", "OBJECT_ID": "2018-031A", "EPOCH": "2025-12-07T07:16:33.884544", "MEAN_MOTION": 14.7646347, "ECCENTRICITY": 0.00014193, "INCLINATION": 98.0814, "RA_OF_ASC_NODE": 39.0903, "ARG_OF_PERICENTER": 234.9006, "MEAN_ANOMALY": 125.207, "EPHEMERIS_TYPE": 0, "CLASSIFICATION_TYPE": "U", "NORAD_CAT_ID": 43259, "ELEMENT_SET_NO": 999, "REV_AT_EPOCH": 41438, "BSTAR": 0.00027148632, "MEAN_MOTION_DOT": 1.838e-05, "MEAN_MOTION_DDOT": 0}, "tle": {"line1": "1 43259U 18031A   25341.30316996  .00001838  00000+0  27149-3 0  9993", "line2": "2 43259  98.0814  39.0903 0001419 234.9006 125.2070 14.76463470414387"}}, "geometry": {"type": "Point", "coordinates": [7.54549022269273, 75.0311562052691]}}, {"type": "Feature", "properties": {"norad_id": 43260, "name": "GAOFEN-1 03", "group": "resource", "lat": -13.127500933449625, "lon": -142.37388136823523, "alt_km": 646.6092558906803, "timestamp": "2025-12-07T20:38:13.735097+00:00", "meta": {"OBJECT_NAME": "GAOFEN-1 03", "OBJECT_ID": "2018-031B", "EPOCH": "2025-12-07T06:45:09.656064", "MEAN_MOTION": 14.76420107, "ECCENTRICITY": 0.00023355, "INCLINATION": 98.0803, "RA_OF_ASC_NODE": 38.9461, "ARG_OF_PERICENTER": 345.0519, "MEAN_ANOMALY": 15.0621, "EPHEMERIS_TYPE": 0, "CLASSIFICATION_TYPE": "U", "NORAD_CAT_ID": 43260, "ELEMENT_SET_NO": 999, "REV_AT_EPOCH": 41437, "BSTAR": 0.00027643118, "MEAN_MOTION_DOT": 1.87e-05, "MEAN_MOTION_DDOT": 0}, "tle": {"line1": "1 43260U 18031B   25341.28136176  .00001870  00000+0  27643-3 0  9997", "line2": "2 43260  98.0803  38.9461 0002335 345.0519  15.0621 14.76420107414372"}}, "geometry": {"type": "Point", "coordinates": [-142.37388136823523, -13.127500933449625]}}]}